{"fetched_at":"2026-07-10T18:08:15.903Z","source":"https://celestrak.org/NORAD/elements/gp.php?NAME=ICEYE&FORMAT=JSON","constellation":"iceye","records":[{"OBJECT_NAME":"ICEYE-X2","OBJECT_ID":"2018-099AU","EPOCH":"2026-07-10T06:44:41.866368","CLASSIFICATION_TYPE":"U","MEAN_MOTION":15.18003727,"ECCENTRICITY":0.00092895,"INCLINATION":97.4352,"RA_OF_ASC_NODE":244.7172,"ARG_OF_PERICENTER":213.5771,"MEAN_ANOMALY":146.4876,"EPHEMERIS_TYPE":0,"NORAD_CAT_ID":43800,"ELEMENT_SET_NO":999,"REV_AT_EPOCH":41632,"BSTAR":0.00016182092,"MEAN_MOTION_DOT":0.00003226,"MEAN_MOTION_DDOT":0},{"OBJECT_NAME":"ICEYE-X4","OBJECT_ID":"2019-038D","EPOCH":"2026-07-10T08:33:42.463008","CLASSIFICATION_TYPE":"U","MEAN_MOTION":15.29812286,"ECCENTRICITY":0.00123879,"INCLINATION":97.8755,"RA_OF_ASC_NODE":225.638,"ARG_OF_PERICENTER":215.6641,"MEAN_ANOMALY":144.3771,"EPHEMERIS_TYPE":0,"NORAD_CAT_ID":44390,"ELEMENT_SET_NO":999,"REV_AT_EPOCH":38534,"BSTAR":0.00028563344,"MEAN_MOTION_DOT":0.00008182,"MEAN_MOTION_DDOT":0},{"OBJECT_NAME":"ICEYE-X7","OBJECT_ID":"2020-068L","EPOCH":"2026-07-10T07:58:27.246720","CLASSIFICATION_TYPE":"U","MEAN_MOTION":15.3203025,"ECCENTRICITY":0.00055635,"INCLINATION":97.7499,"RA_OF_ASC_NODE":158.9196,"ARG_OF_PERICENTER":234.2792,"MEAN_ANOMALY":125.7931,"EPHEMERIS_TYPE":0,"NORAD_CAT_ID":46496,"ELEMENT_SET_NO":999,"REV_AT_EPOCH":31833,"BSTAR":0.00026329736,"MEAN_MOTION_DOT":0.00008062,"MEAN_MOTION_DDOT":0},{"OBJECT_NAME":"ICEYE-X6","OBJECT_ID":"2020-068M","EPOCH":"2026-07-10T06:26:35.878848","CLASSIFICATION_TYPE":"U","MEAN_MOTION":15.04647366,"ECCENTRICITY":0.00076353,"INCLINATION":98.0979,"RA_OF_ASC_NODE":186.0453,"ARG_OF_PERICENTER":24.1497,"MEAN_ANOMALY":336.0085,"EPHEMERIS_TYPE":0,"NORAD_CAT_ID":46497,"ELEMENT_SET_NO":999,"REV_AT_EPOCH":31670,"BSTAR":0.0001753766,"MEAN_MOTION_DOT":0.00002398,"MEAN_MOTION_DDOT":0},{"OBJECT_NAME":"ICEYE-X21","OBJECT_ID":"2023-001AS","EPOCH":"2026-06-24T05:11:18.420288","CLASSIFICATION_TYPE":"U","MEAN_MOTION":16.24069885,"ECCENTRICITY":0.00123774,"INCLINATION":97.3001,"RA_OF_ASC_NODE":262.6152,"ARG_OF_PERICENTER":285.9702,"MEAN_ANOMALY":74.0225,"EPHEMERIS_TYPE":0,"NORAD_CAT_ID":55049,"ELEMENT_SET_NO":999,"REV_AT_EPOCH":19475,"BSTAR":0.000602142,"MEAN_MOTION_DOT":0.01585954,"MEAN_MOTION_DDOT":0.000002396838},{"OBJECT_NAME":"ICEYE-X25","OBJECT_ID":"2023-084AH","EPOCH":"2026-07-10T07:43:24.572352","CLASSIFICATION_TYPE":"U","MEAN_MOTION":15.62503046,"ECCENTRICITY":0.00040157,"INCLINATION":97.5899,"RA_OF_ASC_NODE":339.2037,"ARG_OF_PERICENTER":200.8398,"MEAN_ANOMALY":159.2696,"EPHEMERIS_TYPE":0,"NORAD_CAT_ID":56963,"ELEMENT_SET_NO":999,"REV_AT_EPOCH":17158,"BSTAR":0.00042661063,"MEAN_MOTION_DOT":0.00037939,"MEAN_MOTION_DDOT":0},{"OBJECT_NAME":"ICEYE-X31","OBJECT_ID":"2023-174AJ","EPOCH":"2026-07-10T06:48:17.794656","CLASSIFICATION_TYPE":"U","MEAN_MOTION":15.35072024,"ECCENTRICITY":0.00022187,"INCLINATION":97.3775,"RA_OF_ASC_NODE":267.0276,"ARG_OF_PERICENTER":200.7422,"MEAN_ANOMALY":159.3732,"EPHEMERIS_TYPE":0,"NORAD_CAT_ID":58288,"ELEMENT_SET_NO":999,"REV_AT_EPOCH":14829,"BSTAR":0.00035848512,"MEAN_MOTION_DOT":0.00012126,"MEAN_MOTION_DDOT":0},{"OBJECT_NAME":"ICEYE-X34","OBJECT_ID":"2023-174AQ","EPOCH":"2026-07-08T18:12:20.023776","CLASSIFICATION_TYPE":"U","MEAN_MOTION":15.6975075,"ECCENTRICITY":0.00016009,"INCLINATION":97.3861,"RA_OF_ASC_NODE":282.0601,"ARG_OF_PERICENTER":191.4512,"MEAN_ANOMALY":168.6714,"EPHEMERIS_TYPE":0,"NORAD_CAT_ID":58294,"ELEMENT_SET_NO":999,"REV_AT_EPOCH":14912,"BSTAR":0.001077636,"MEAN_MOTION_DOT":0.00129633,"MEAN_MOTION_DDOT":0},{"OBJECT_NAME":"ICEYE-X35","OBJECT_ID":"2023-174AY","EPOCH":"2026-07-10T07:11:49.135200","CLASSIFICATION_TYPE":"U","MEAN_MOTION":15.54793259,"ECCENTRICITY":0.00082463,"INCLINATION":97.3784,"RA_OF_ASC_NODE":276.5455,"ARG_OF_PERICENTER":123.1201,"MEAN_ANOMALY":237.0846,"EPHEMERIS_TYPE":0,"NORAD_CAT_ID":58302,"ELEMENT_SET_NO":999,"REV_AT_EPOCH":14893,"BSTAR":0.00063557995,"MEAN_MOTION_DOT":0.00042407,"MEAN_MOTION_DDOT":0},{"OBJECT_NAME":"ICEYE-X38","OBJECT_ID":"2024-043C","EPOCH":"2026-07-10T07:57:35.746272","CLASSIFICATION_TYPE":"U","MEAN_MOTION":15.13065841,"ECCENTRICITY":0.00027591,"INCLINATION":97.8425,"RA_OF_ASC_NODE":335.7215,"ARG_OF_PERICENTER":34.8771,"MEAN_ANOMALY":325.264,"EPHEMERIS_TYPE":0,"NORAD_CAT_ID":59100,"ELEMENT_SET_NO":999,"REV_AT_EPOCH":11517,"BSTAR":0.00017601066,"MEAN_MOTION_DOT":0.00003043,"MEAN_MOTION_DDOT":0},{"OBJECT_NAME":"ICEYE-X37","OBJECT_ID":"2024-043E","EPOCH":"2026-07-10T05:35:50.400672","CLASSIFICATION_TYPE":"U","MEAN_MOTION":15.06274331,"ECCENTRICITY":0.00136105,"INCLINATION":97.8334,"RA_OF_ASC_NODE":328.6017,"ARG_OF_PERICENTER":292.9777,"MEAN_ANOMALY":67.0013,"EPHEMERIS_TYPE":0,"NORAD_CAT_ID":59102,"ELEMENT_SET_NO":999,"REV_AT_EPOCH":12855,"BSTAR":0.00013718504,"MEAN_MOTION_DOT":0.00001952,"MEAN_MOTION_DDOT":0},{"OBJECT_NAME":"ICEYE-X36","OBJECT_ID":"2024-043F","EPOCH":"2026-07-10T03:46:32.736576","CLASSIFICATION_TYPE":"U","MEAN_MOTION":15.07209238,"ECCENTRICITY":0.00048627,"INCLINATION":97.8387,"RA_OF_ASC_NODE":329.6431,"ARG_OF_PERICENTER":232.944,"MEAN_ANOMALY":127.1342,"EPHEMERIS_TYPE":0,"NORAD_CAT_ID":59103,"ELEMENT_SET_NO":999,"REV_AT_EPOCH":12860,"BSTAR":0.00014474435,"MEAN_MOTION_DOT":0.00002114,"MEAN_MOTION_DDOT":0},{"OBJECT_NAME":"ICEYE-X43","OBJECT_ID":"2024-149BZ","EPOCH":"2026-07-08T18:43:09.815808","CLASSIFICATION_TYPE":"U","MEAN_MOTION":14.99772584,"ECCENTRICITY":0.00069538,"INCLINATION":97.6814,"RA_OF_ASC_NODE":266.4552,"ARG_OF_PERICENTER":14.9788,"MEAN_ANOMALY":345.164,"EPHEMERIS_TYPE":0,"NORAD_CAT_ID":60539,"ELEMENT_SET_NO":999,"REV_AT_EPOCH":10335,"BSTAR":0.00014675091,"MEAN_MOTION_DOT":0.00001755,"MEAN_MOTION_DDOT":0},{"OBJECT_NAME":"ICEYE-X39","OBJECT_ID":"2024-149CG","EPOCH":"2026-07-08T18:11:05.756064","CLASSIFICATION_TYPE":"U","MEAN_MOTION":15.00041901,"ECCENTRICITY":0.00069867,"INCLINATION":97.677,"RA_OF_ASC_NODE":266.4889,"ARG_OF_PERICENTER":63.7023,"MEAN_ANOMALY":296.4918,"EPHEMERIS_TYPE":0,"NORAD_CAT_ID":60546,"ELEMENT_SET_NO":999,"REV_AT_EPOCH":10335,"BSTAR":0.00022606183,"MEAN_MOTION_DOT":0.00002756,"MEAN_MOTION_DDOT":0},{"OBJECT_NAME":"ICEYE-X33","OBJECT_ID":"2024-149CJ","EPOCH":"2026-07-09T20:04:20.713440","CLASSIFICATION_TYPE":"U","MEAN_MOTION":15.00937312,"ECCENTRICITY":0.0001952,"INCLINATION":97.7345,"RA_OF_ASC_NODE":269.8614,"ARG_OF_PERICENTER":73.3938,"MEAN_ANOMALY":286.75,"EPHEMERIS_TYPE":0,"NORAD_CAT_ID":60548,"ELEMENT_SET_NO":999,"REV_AT_EPOCH":10360,"BSTAR":0.00025134873,"MEAN_MOTION_DOT":0.00003143,"MEAN_MOTION_DDOT":0}]}
