ICEYE-X2                
1 43800U 18099AU  26191.28104012  .00003226  00000+0  16182-3 0  9992
2 43800  97.4352 244.7172 0009289 213.5771 146.4876 15.18003727416324
ICEYE-X4                
1 44390U 19038D   26191.35674147  .00008182  00000+0  28563-3 0  9992
2 44390  97.8755 225.6380 0012387 215.6641 144.3771 15.29812286385349
ICEYE-X7                
1 46496U 20068L   26191.33225980  .00008062  00000+0  26330-3 0  9998
2 46496  97.7499 158.9196 0005563 234.2792 125.7931 15.32030250318330
ICEYE-X6                
1 46497U 20068M   26191.26847082  .00002398  00000+0  17538-3 0  9990
2 46497  98.0979 186.0453 0007635  24.1497 336.0085 15.04647366316703
ICEYE-X21               
1 55049U 23001AS  26175.21618542  .01585954  23968-5  60214-3 0  9995
2 55049  97.3001 262.6152 0012377 285.9702  74.0225 16.24069885194757
ICEYE-X25               
1 56963U 23084AH  26191.32181218  .00037939  00000+0  42661-3 0  9993
2 56963  97.5899 339.2037 0004015 200.8398 159.2696 15.62503046171587
ICEYE-X31               
1 58288U 23174AJ  26191.28353929  .00012126  00000+0  35849-3 0  9991
2 58288  97.3775 267.0276 0002218 200.7422 159.3732 15.35072024148294
ICEYE-X34               
1 58294U 23174AQ  26189.75856509  .00129633  00000+0  10776-2 0  9992
2 58294  97.3861 282.0601 0001600 191.4512 168.6714 15.69750750149128
ICEYE-X35               
1 58302U 23174AY  26191.29987425  .00042407  00000+0  63558-3 0  9996
2 58302  97.3784 276.5455 0008246 123.1201 237.0846 15.54793259148937
ICEYE-X38               
1 59100U 24043C   26191.33166373  .00003043  00000+0  17601-3 0  9996
2 59100  97.8425 335.7215 0002759  34.8771 325.2640 15.13065841115172
ICEYE-X37               
1 59102U 24043E   26191.23322223  .00001952  00000+0  13719-3 0  9998
2 59102  97.8334 328.6017 0013610 292.9777  67.0013 15.06274331128554
ICEYE-X36               
1 59103U 24043F   26191.15732334  .00002114  00000+0  14474-3 0  9998
2 59103  97.8387 329.6431 0004862 232.9440 127.1342 15.07209238128608
ICEYE-X43               
1 60539U 24149BZ  26189.77997472  .00001755  00000+0  14675-3 0  9994
2 60539  97.6814 266.4552 0006953  14.9788 345.1640 14.99772584103351
ICEYE-X39               
1 60546U 24149CG  26189.75770551  .00002756  00000+0  22606-3 0  9992
2 60546  97.6770 266.4889 0006986  63.7023 296.4918 15.00041901103354
ICEYE-X33               
1 60548U 24149CJ  26190.83635085  .00003143  00000+0  25135-3 0  9998
2 60548  97.7345 269.8614 0001952  73.3938 286.7500 15.00937312103605
